{
  "links" : {
    "next" : "https://api.nasa.gov/neo/rest/v1/feed?start_date=2000-10-16&end_date=2000-10-16&detailed=true&api_key=t0TVs3DtDT2H8Oy2Zy8m2eVrNsAVKAexjcZXUckd",
    "prev" : "https://api.nasa.gov/neo/rest/v1/feed?start_date=2000-10-14&end_date=2000-10-14&detailed=true&api_key=t0TVs3DtDT2H8Oy2Zy8m2eVrNsAVKAexjcZXUckd",
    "self" : "https://api.nasa.gov/neo/rest/v1/feed?start_date=2000-10-15&end_date=2000-10-15&detailed=true&api_key=t0TVs3DtDT2H8Oy2Zy8m2eVrNsAVKAexjcZXUckd"
  },
  "element_count" : 9,
  "near_earth_objects" : {
    "2000-10-15" : [ {
      "links" : {
        "self" : "https://api.nasa.gov/neo/rest/v1/neo/3145495?api_key=t0TVs3DtDT2H8Oy2Zy8m2eVrNsAVKAexjcZXUckd"
      },
      "neo_reference_id" : "3145495",
      "name" : "(2002 XV90)",
      "nasa_jpl_url" : "http://ssd.jpl.nasa.gov/sbdb.cgi?sstr=3145495",
      "absolute_magnitude_h" : 25.5,
      "estimated_diameter" : {
        "kilometers" : {
          "estimated_diameter_min" : 0.0211132445,
          "estimated_diameter_max" : 0.0472106499
        },
        "meters" : {
          "estimated_diameter_min" : 21.113244479,
          "estimated_diameter_max" : 47.2106498806
        },
        "miles" : {
          "estimated_diameter_min" : 0.0131191578,
          "estimated_diameter_max" : 0.0293353287
        },
        "feet" : {
          "estimated_diameter_min" : 69.2691770164,
          "estimated_diameter_max" : 154.8905885541
        }
      },
      "is_potentially_hazardous_asteroid" : false,
      "close_approach_data" : [ {
        "close_approach_date" : "2000-10-15",
        "epoch_date_close_approach" : 971593200000,
        "relative_velocity" : {
          "kilometers_per_second" : "14.588461395",
          "kilometers_per_hour" : "52518.4610219622",
          "miles_per_hour" : "32632.929294452"
        },
        "miss_distance" : {
          "astronomical" : "0.3101979866",
          "lunar" : "120.6670150757",
          "kilometers" : "46404956",
          "miles" : "28834704"
        },
        "orbiting_body" : "Earth"
      } ],
      "orbital_data" : {
        "orbit_id" : "9",
        "orbit_determination_date" : "2017-04-06 09:14:30",
        "orbit_uncertainty" : "8",
        "minimum_orbit_intersection" : ".000852474",
        "jupiter_tisserand_invariant" : "4.296",
        "epoch_osculation" : "2452630.5",
        "eccentricity" : ".377270938199526",
        "semi_major_axis" : "1.581480425771216",
        "inclination" : "9.975201449251136",
        "ascending_node_longitude" : "79.16120691190459",
        "orbital_period" : "726.4306473033315",
        "perihelion_distance" : ".9848338217963233",
        "perihelion_argument" : "356.0788989379644",
        "aphelion_distance" : "2.178127029746108",
        "perihelion_time" : "2452616.587465233328",
        "mean_anomaly" : "6.894687792419837",
        "mean_motion" : ".4955738050650785",
        "equinox" : "J2000"
      }
    }, {
      "links" : {
        "self" : "https://api.nasa.gov/neo/rest/v1/neo/2395289?api_key=t0TVs3DtDT2H8Oy2Zy8m2eVrNsAVKAexjcZXUckd"
      },
      "neo_reference_id" : "2395289",
      "name" : "395289 (2011 BJ2)",
      "nasa_jpl_url" : "http://ssd.jpl.nasa.gov/sbdb.cgi?sstr=2395289",
      "absolute_magnitude_h" : 18.3,
      "estimated_diameter" : {
        "kilometers" : {
          "estimated_diameter_min" : 0.5815070396,
          "estimated_diameter_max" : 1.30028927
        },
        "meters" : {
          "estimated_diameter_min" : 581.5070396458,
          "estimated_diameter_max" : 1300.2892700427
        },
        "miles" : {
          "estimated_diameter_min" : 0.3613316107,
          "estimated_diameter_max" : 0.807962044
        },
        "feet" : {
          "estimated_diameter_min" : 1907.8315559515,
          "estimated_diameter_max" : 4266.0410487267
        }
      },
      "is_potentially_hazardous_asteroid" : false,
      "close_approach_data" : [ {
        "close_approach_date" : "2000-10-15",
        "epoch_date_close_approach" : 971593200000,
        "relative_velocity" : {
          "kilometers_per_second" : "32.8228046528",
          "kilometers_per_hour" : "118162.0967501066",
          "miles_per_hour" : "73421.3317278649"
        },
        "miss_distance" : {
          "astronomical" : "0.4101960686",
          "lunar" : "159.5662689209",
          "kilometers" : "61364460",
          "miles" : "38130108"
        },
        "orbiting_body" : "Earth"
      } ],
      "orbital_data" : {
        "orbit_id" : "48",
        "orbit_determination_date" : "2017-05-14 06:18:27",
        "orbit_uncertainty" : "0",
        "minimum_orbit_intersection" : ".0938502",
        "jupiter_tisserand_invariant" : "4.634",
        "epoch_osculation" : "2458000.5",
        "eccentricity" : ".3472492763451782",
        "semi_major_axis" : "1.290400870088459",
        "inclination" : "49.90123941966606",
        "ascending_node_longitude" : "34.01261060053654",
        "orbital_period" : "535.4086677220515",
        "perihelion_distance" : ".8423101017550536",
        "perihelion_argument" : "84.12432760940136",
        "aphelion_distance" : "1.738491638421865",
        "perihelion_time" : "2457775.861082671893",
        "mean_anomaly" : "151.0435207972777",
        "mean_motion" : ".6723835860402767",
        "equinox" : "J2000"
      }
    }, {
      "links" : {
        "self" : "https://api.nasa.gov/neo/rest/v1/neo/2439898?api_key=t0TVs3DtDT2H8Oy2Zy8m2eVrNsAVKAexjcZXUckd"
      },
      "neo_reference_id" : "2439898",
      "name" : "439898 (2000 TG2)",
      "nasa_jpl_url" : "http://ssd.jpl.nasa.gov/sbdb.cgi?sstr=2439898",
      "absolute_magnitude_h" : 20.0,
      "estimated_diameter" : {
        "kilometers" : {
          "estimated_diameter_min" : 0.2658,
          "estimated_diameter_max" : 0.5943468684
        },
        "meters" : {
          "estimated_diameter_min" : 265.8,
          "estimated_diameter_max" : 594.3468684194
        },
        "miles" : {
          "estimated_diameter_min" : 0.1651604118,
          "estimated_diameter_max" : 0.369309908
        },
        "feet" : {
          "estimated_diameter_min" : 872.047272,
          "estimated_diameter_max" : 1949.9569797852
        }
      },
      "is_potentially_hazardous_asteroid" : false,
      "close_approach_data" : [ {
        "close_approach_date" : "2000-10-15",
        "epoch_date_close_approach" : 971593200000,
        "relative_velocity" : {
          "kilometers_per_second" : "6.4608422383",
          "kilometers_per_hour" : "23259.0320577833",
          "miles_per_hour" : "14452.2580027932"
        },
        "miss_distance" : {
          "astronomical" : "0.2490703081",
          "lunar" : "96.888343811",
          "kilometers" : "37260388",
          "miles" : "23152532"
        },
        "orbiting_body" : "Earth"
      } ],
      "orbital_data" : {
        "orbit_id" : "49",
        "orbit_determination_date" : "2017-04-06 09:20:31",
        "orbit_uncertainty" : "0",
        "minimum_orbit_intersection" : ".162998",
        "jupiter_tisserand_invariant" : "4.445",
        "epoch_osculation" : "2458000.5",
        "eccentricity" : ".2456406472626395",
        "semi_major_axis" : "1.52178988792615",
        "inclination" : "12.00216353594434",
        "ascending_node_longitude" : "206.8602557495668",
        "orbital_period" : "685.6941870993381",
        "perihelion_distance" : "1.147976434858231",
        "perihelion_argument" : "200.3366264066778",
        "aphelion_distance" : "1.895603340994069",
        "perihelion_time" : "2458041.365965074644",
        "mean_anomaly" : "338.5447394718246",
        "mean_motion" : ".5250153884531122",
        "equinox" : "J2000"
      }
    } ]
  }
}